GLOBALSTAR M024         
1 25883U 99043A   24243.53556490 -.00000028  00000+0  13092-2 0  9990
2 25883  52.0054 316.4359 0001021 353.6723  19.8531 11.10163468 82589
GLOBALSTAR M027         
1 25884U 99043B   24243.13619751 -.00000085  00000+0 -82959-3 0  9990
2 25884  52.0244  27.0662 0020807 240.1442 119.7283 11.04369604109086
GLOBALSTAR M054         
1 25885U 99043C   24243.63688338 -.00000082  00000+0 -27189-3 0  9994
2 25885  52.0113 202.0100 0005641  38.9921 132.1002 11.39212133 85935
GLOBALSTAR M053         
1 25886U 99043D   24243.44282984 -.00000072  00000+0 -95170-4 0  9996
2 25886  51.9970 133.4407 0003483 321.3856 209.8207 11.27658017 86640
GLOBALSTAR M058         
1 25907U 99049A   24243.45634340 -.00000081  00000+0  45372-4 0  9992
2 25907  51.9933 165.4940 0002534  69.5418 290.5689 11.93181034506833
GLOBALSTAR M050         
1 25908U 99049B   24243.59447112 -.00000111  00000+0 -26300-3 0  9991
2 25908  51.9971 194.5101 0008757 171.5269   0.3362 12.07438603113088
GLOBALSTAR M033         
1 25909U 99049C   24243.24310408 -.00000093  00000+0 -11817-4 0  9998
2 25909  51.9911  87.4067 0013246  30.2734 329.8876 12.20276481500225
GLOBALSTAR M055         
1 25910U 99049D   24242.95515814 -.00000060  00000+0  29045-3 0  9999
2 25910  52.0009 113.1370 0006314 247.9533 112.0649 12.29407572132466
